NORAD_CAT_ID,OBJECT_NAME,OBJECT_TYPE,EPOCH,MEAN_MOTION,ECCENTRICITY,INCLINATION,RA_OF_ASC_NODE,ARG_OF_PERICENTER,MEAN_ANOMALY,BSTAR,MEAN_MOTION_DOT,MEAN_MOTION_DDOT,TLE_LINE0,TLE_LINE1,TLE_LINE2,SEMIMAJOR_AXIS,PERIOD,APOGEE,PERIGEE,DECAYED
54062.0,STARLINK-5170,PAYLOAD,2024-03-10 13:55:39,15.08846138,0.0001433,53.2185,17.1882,89.9566,270.159,0.00016635,2.361e-05,0.0,0 STARLINK-5170,1 54062U 22136M   24070.58031417  .00002361  00000-0  16635-3 0  9999,2 54062  53.2185  17.1882 0001433  89.9566 270.1590 15.08846138 76779,6917.862,95.437,540.718,538.735,0.0
54062.0,STARLINK-5170,PAYLOAD,2024-03-11 13:46:26,15.08847165,0.0001607,53.2195,12.7249,90.836,269.2816,0.00015743,2.219e-05,0.0,0 STARLINK-5170,1 54062U 22136M   24071.57391485  .00002219  00000-0  15743-3 0  9994,2 54062  53.2195  12.7249 0001607  90.8360 269.2816 15.08847165 76922,6917.858,95.437,540.835,538.612,0.0
54062.0,STARLINK-5170,PAYLOAD,2024-03-12 02:29:32,15.08830832,0.0001742,53.2211,10.3468,104.1442,255.9744,0.0002692,3.998e-05,0.0,0 STARLINK-5170,1 54062U 22136M   24072.10384397  .00003998  00000-0  26920-3 0  9992,2 54062  53.2211  10.3468 0001742 104.1442 255.9744 15.08830832 77485,6917.908,95.438,540.979,538.568,0.0
54062.0,STARLINK-5170,PAYLOAD,2024-03-12 05:40:18,15.08831818,0.0001758,53.2213,9.7518,104.9306,255.1881,0.00026282,3.896e-05,0.0,0 STARLINK-5170,1 54062U 22136M   24072.23632339  .00003896  00000-0  26282-3 0  9996,2 54062  53.2213   9.7518 0001758 104.9306 255.1881 15.08831818 77028,6917.905,95.438,540.987,538.554,0.0
54062.0,STARLINK-5170,PAYLOAD,2024-03-13 05:31:04,15.08845645,0.0001438,53.2186,5.2936,88.3694,271.7462,0.00010447,1.375e-05,0.0,0 STARLINK-5170,1 54062U 22136M   24073.22991664  .00001375  00000-0  10447-3 0  9991,2 54062  53.2186   5.2936 0001438  88.3694 271.7462 15.08845645 77653,6917.863,95.437,540.723,538.733,0.0
54062.0,STARLINK-5170,PAYLOAD,2024-03-13 11:52:37,15.08850867,0.0001453,53.2188,4.1044,89.0789,271.037,0.00017988,2.577e-05,0.0,0 STARLINK-5170,1 54062U 22136M   24073.49487360  .00002577  00000-0  17988-3 0  9995,2 54062  53.2188   4.1044 0001453  89.0789 271.0370 15.08850867 77218,6917.847,95.437,540.717,538.707,0.0
54062.0,STARLINK-5170,PAYLOAD,2024-03-13 23:00:19,15.08835813,0.000149,53.2194,2.0277,106.8704,253.2452,0.00011584,1.556e-05,0.0,0 STARLINK-5170,1 54062U 22136M   24073.95856134  .00001556  00000-0  11584-3 0  9997,2 54062  53.2194   2.0277 0001490 106.8704 253.2452 15.08835813 77280,6917.893,95.438,540.789,538.727,0.0
54062.0,STARLINK-5170,PAYLOAD,2024-03-14 02:11:05,15.08838793,0.0001431,53.2193,1.434,115.9147,244.1992,-1.1531e-05,-4.71e-06,0.0,0 STARLINK-5170,1 54062U 22136M   24074.09104035 -.00000471  00000-0 -11531-4 0  9999,2 54062  53.2193   1.4340 0001431 115.9147 244.1992 15.08838793 77783,6917.884,95.438,540.739,538.759,0.0
54062.0,STARLINK-5170,PAYLOAD,2024-03-14 05:21:52,15.08839188,0.0001371,53.2186,0.8321,94.7331,265.3817,5.3989e-05,5.71e-06,0.0,0 STARLINK-5170,1 54062U 22136M   24074.22352018  .00000571  00000-0  53989-4 0  9992,2 54062  53.2186   0.8321 0001371  94.7331 265.3817 15.08839188 77329,6917.883,95.438,540.696,538.799,0.0
54062.0,STARLINK-5170,PAYLOAD,2024-03-14 19:40:20,15.08841833,0.0001332,53.2184,358.1555,93.7007,266.4137,4.9534e-05,5.01e-06,0.0,0 STARLINK-5170,1 54062U 22136M   24074.81967915  .00000501  00000-0  49534-4 0  9999,2 54062  53.2184 358.1555 0001332  93.7007 266.4137 15.08841833 77418,6917.875,95.437,540.661,538.818,0.0
54062.0,STARLINK-5170,PAYLOAD,2024-03-15 03:37:16,15.08838961,0.0001175,53.2174,356.67,80.5849,279.5276,4.5872e-06,-2.15e-06,0.0,0 STARLINK-5170,1 54062U 22136M   24075.15088217 -.00000215  00000-0  45872-5 0  9991,2 54062  53.2174 356.6700 0001175  80.5849 279.5276 15.08838961 77940,6917.884,95.438,540.561,538.936,0.0
54062.0,STARLINK-5170,PAYLOAD,2024-03-15 22:41:54,15.0882924,0.0001134,53.2174,353.0989,77.1451,282.9668,0.00037688,5.714e-05,0.0,0 STARLINK-5170,1 54062U 22136M   24075.94577024  .00005714  00000-0  37688-3 0  9999,2 54062  53.2174 353.0989 0001134  77.1451 282.9668 15.08829240 77589,6917.913,95.438,540.563,538.994,0.0
54062.0,STARLINK-5170,PAYLOAD,2024-03-16 03:28:03,15.08842622,0.0001175,53.218,352.207,78.1475,281.9649,0.00013846,1.917e-05,0.0,0 STARLINK-5170,1 54062U 22136M   24076.14448208  .00001917  00000-0  13846-3 0  9994,2 54062  53.2180 352.2070 0001175  78.1475 281.9649 15.08842622 77611,6917.872,95.437,540.55,538.925,0.0
54062.0,STARLINK-5170,PAYLOAD,2024-03-16 22:32:41,15.08839211,0.0001249,53.2185,348.6384,76.9375,283.1756,0.00012986,1.779e-05,0.0,0 STARLINK-5170,1 54062U 22136M   24076.93936522  .00001779  00000-0  12986-3 0  9992,2 54062  53.2185 348.6384 0001249  76.9375 283.1756 15.08839211 77736,6917.883,95.438,540.612,538.884,0.0
54062.0,STARLINK-5170,PAYLOAD,2024-03-17 03:18:50,15.08840283,0.0001295,53.2186,347.7474,78.7643,281.3495,0.00013529,1.866e-05,0.0,0 STARLINK-5170,1 54062U 22136M   24077.13808507  .00001866  00000-0  13529-3 0  9997,2 54062  53.2186 347.7474 0001295  78.7643 281.3495 15.08840283 78244,6917.88,95.438,540.64,538.849,0.0
54062.0,STARLINK-5170,PAYLOAD,2024-03-17 22:23:28,15.08843785,0.0001425,53.2191,344.1782,74.8956,285.2194,8.7433e-05,1.104e-05,0.0,0 STARLINK-5170,1 54062U 22136M   24077.93296397  .00001104  00000-0  87433-4 0  9994,2 54062  53.2191 344.1782 0001425  74.8956 285.2194 15.08843785 77880,6917.869,95.437,540.72,538.748,0.0
54062.0,STARLINK-5170,PAYLOAD,2024-03-18 03:09:37,15.08844527,0.0001476,53.2192,343.2853,72.4002,287.7151,9.4479e-05,1.216e-05,0.0,0 STARLINK-5170,1 54062U 22136M   24078.13168337  .00001216  00000-0  94479-4 0  9991,2 54062  53.2192 343.2853 0001476  72.4002 287.7151 15.08844527 77911,6917.867,95.437,540.753,538.71,0.0
54062.0,STARLINK-5170,PAYLOAD,2024-03-18 20:38:51,15.08842761,0.0001305,53.2191,340.0146,86.0468,274.0674,9.8386e-05,1.278e-05,0.0,0 STARLINK-5170,1 54062U 22136M   24078.86032282  .00001278  00000-0  98386-4 0  9999,2 54062  53.2191 340.0146 0001305  86.0468 274.0674 15.08842761 78501,6917.872,95.437,540.64,538.834,0.0
54062.0,STARLINK-5170,PAYLOAD,2024-03-18 22:14:15,15.08842497,0.0001257,53.219,339.7172,90.0976,270.0161,9.1823e-05,1.174e-05,0.0,0 STARLINK-5170,1 54062U 22136M   24078.92656267  .00001174  00000-0  91823-4 0  9995,2 54062  53.2190 339.7172 0001257  90.0976 270.0161 15.08842497 78030,6917.873,95.437,540.607,538.868,0.0
54062.0,STARLINK-5170,PAYLOAD,2024-03-19 03:00:24,15.08844921,0.0001254,53.219,338.8249,91.0397,269.0739,0.00010837,1.437e-05,0.0,0 STARLINK-5170,1 54062U 22136M   24079.12528107  .00001437  00000-0  10837-3 0  9996,2 54062  53.2190 338.8249 0001254  91.0397 269.0739 15.08844921 78066,6917.865,95.437,540.598,538.863,0.0
54062.0,STARLINK-5170,PAYLOAD,2024-03-19 22:05:02,15.0883676,0.0001263,53.2185,335.2549,86.8575,273.2562,1.2999e-05,-8.1e-07,0.0,0 STARLINK-5170,1 54062U 22136M   24079.92016834 -.00000081  00000-0  12999-4 0  9990,2 54062  53.2185 335.2549 0001263  86.8575 273.2562 15.08836760 78663,6917.89,95.438,540.629,538.882,0.0
54062.0,STARLINK-5170,PAYLOAD,2024-03-19 23:40:25,15.08836926,0.0001276,53.2184,334.9576,88.6663,271.4476,1.1245e-05,-1.09e-06,0.0,0 STARLINK-5170,1 54062U 22136M   24079.98640800 -.00000109  00000-0  11245-4 0  9996,2 54062  53.2184 334.9576 0001276  88.6663 271.4476 15.08836926 78196,6917.89,95.438,540.638,538.872,0.0
54062.0,STARLINK-5170,PAYLOAD,2024-03-20 21:55:49,15.08835169,0.0001373,53.2186,330.7936,98.5487,261.5661,4.8953e-05,4.91e-06,0.0,0 STARLINK-5170,1 54062U 22136M   24080.91377085  .00000491  00000-0  48953-4 0  9992,2 54062  53.2186 330.7936 0001373  98.5487 261.5661 15.08835169 78334,6917.895,95.438,540.71,538.81,0.0
54062.0,STARLINK-5170,PAYLOAD,2024-03-21 02:41:59,15.08839747,0.0001285,53.2174,329.9071,96.2109,263.903,4.3553e-05,4.05e-06,0.0,0 STARLINK-5170,1 54062U 22136M   24081.11248939  .00000405  00000-0  43553-4 0  9996,2 54062  53.2174 329.9071 0001285  96.2109 263.9030 15.08839747 78847,6917.881,95.438,540.635,538.857,0.0
54062.0,STARLINK-5170,PAYLOAD,2024-03-21 09:03:30,15.08848205,0.0001387,53.2184,328.72,106.9764,253.1381,0.00012854,1.759e-05,0.0,0 STARLINK-5170,1 54062U 22136M   24081.37744123  .00001759  00000-0  12854-3 0  9992,2 54062  53.2184 328.7200 0001387 106.9764 253.1381 15.08848205 78881,6917.855,95.437,540.68,538.761,0.0
54062.0,STARLINK-5170,PAYLOAD,2024-03-21 20:11:13,15.08841221,0.0001376,53.2178,326.6355,86.0684,274.0465,0.0001622,2.295e-05,0.0,0 STARLINK-5170,1 54062U 22136M   24081.84112795  .00002295  00000-0  16220-3 0  9995,2 54062  53.2178 326.6355 0001376  86.0684 274.0465 15.08841221 78953,6917.877,95.437,540.694,538.79,0.0
54062.0,STARLINK-5170,PAYLOAD,2024-03-21 21:46:36,15.08841367,0.0001303,53.2171,326.3384,70.1834,289.9298,0.00016854,2.396e-05,0.0,0 STARLINK-5170,1 54062U 22136M   24081.90736826  .00002396  00000-0  16854-3 0  9994,2 54062  53.2171 326.3384 0001303  70.1834 289.9298 15.08841367 78484,6917.876,95.437,540.643,538.84,0.0
54062.0,STARLINK-5170,PAYLOAD,2024-03-21 23:21:59,15.08845375,0.0001386,53.218,326.0414,100.2693,259.8455,0.00019115,2.756e-05,0.0,0 STARLINK-5170,1 54062U 22136M   24081.97360405  .00002756  00000-0  19115-3 0  9990,2 54062  53.2180 326.0414 0001386 100.2693 259.8455 15.08845375 78499,6917.864,95.437,540.688,538.77,0.0
54062.0,STARLINK-5170,PAYLOAD,2024-03-22 21:37:23,15.08843061,0.0001258,53.2186,321.8761,93.3831,266.7305,5.183e-05,5.37e-06,0.0,0 STARLINK-5170,1 54062U 22136M   24082.90096853  .00000537  00000-0  51830-4 0  9993,2 54062  53.2186 321.8761 0001258  93.3831 266.7305 15.08843061 78634,6917.871,95.437,540.606,538.866,0.0
54062.0,STARLINK-5170,PAYLOAD,2024-03-23 00:48:10,15.08840901,0.0001283,53.2181,321.2817,82.6822,277.4315,4.263e-05,3.91e-06,0.0,0 STARLINK-5170,1 54062U 22136M   24083.03344984  .00000391  00000-0  42630-4 0  9995,2 54062  53.2181 321.2817 0001283  82.6822 277.4315 15.08840901 79130,6917.878,95.437,540.63,538.855,0.0
